SENTINEL-6              
1 46984U 20086A   24060.47184577 -.00000060  00000+0  23712-5 0  9998
2 46984  66.0400  77.0721 0007869 270.7685  89.2428 12.80931202152906
